NORAD_CAT_ID,OBJECT_NAME,OBJECT_TYPE,EPOCH,MEAN_MOTION,ECCENTRICITY,INCLINATION,RA_OF_ASC_NODE,ARG_OF_PERICENTER,MEAN_ANOMALY,BSTAR,MEAN_MOTION_DOT,MEAN_MOTION_DDOT,TLE_LINE0,TLE_LINE1,TLE_LINE2,SEMIMAJOR_AXIS,PERIOD,APOGEE,PERIGEE,DECAYED
54790.0,STARLINK-5445,PAYLOAD,2024-03-28 09:52:16,15.08843765,0.0001311,53.2198,341.9618,74.434,285.6797,0.00033111,4.986e-05,0.0,0 STARLINK-5445,1 54790U 22175AJ  24088.41129858  .00004986  00000-0  33111-3 0  9991,2 54790  53.2198 341.9618 0001311  74.4340 285.6797 15.08843765 70597,6917.869,95.437,540.641,538.827,0.0
54790.0,STARLINK-5445,PAYLOAD,2024-03-28 22:35:21,15.08841534,9.51e-05,53.2173,339.5811,67.0907,293.0185,-3.023e-05,-7.69e-06,0.0,0 STARLINK-5445,1 54790U 22175AJ  24088.94122628 -.00000769  00000-0 -30230-4 0  9994,2 54790  53.2173 339.5811 0000951  67.0907 293.0185 15.08841534 72839,6917.876,95.437,540.399,539.083,0.0
54790.0,STARLINK-5445,PAYLOAD,2024-03-29 09:43:02,15.08854686,0.0001114,53.2186,337.5003,82.2053,277.9065,8.6982e-05,1.097e-05,0.0,0 STARLINK-5445,1 54790U 22175AJ  24089.40489201  .00001097  00000-0  86982-4 0  9997,2 54790  53.2186 337.5003 0001114  82.2053 277.9065 15.08854686 72905,6917.836,95.437,540.471,538.93,0.0
54790.0,STARLINK-5445,PAYLOAD,2024-03-29 22:26:07,15.08850285,0.0002,53.2184,335.1222,84.0884,276.0336,0.00011401,1.527e-05,0.0,0 STARLINK-5445,1 54790U 22175AJ  24089.93481352  .00001527  00000-0  11401-3 0  9995,2 54790  53.2184 335.1222 0002000  84.0884 276.0336 15.08850285 72987,6917.849,95.437,541.098,538.33,0.0
54790.0,STARLINK-5445,PAYLOAD,2024-03-30 00:01:31,15.08840757,0.0001227,53.2191,334.8251,87.2577,272.8555,3.1142e-05,2.08e-06,0.0,0 STARLINK-5445,1 54790U 22175AJ  24090.00106087  .00000208  00000-0  31142-4 0  9994,2 54790  53.2191 334.8251 0001227  87.2577 272.8555 15.08840757 70839,6917.878,95.438,540.592,538.894,0.0
54790.0,STARLINK-5445,PAYLOAD,2024-03-30 09:33:49,15.08855282,0.0001029,53.2181,333.0401,84.3624,275.7485,0.0001153,1.548e-05,0.0,0 STARLINK-5445,1 54790U 22175AJ  24090.39848634  .00001548  00000-0  11530-3 0  9993,2 54790  53.2181 333.0401 0001029  84.3624 275.7485 15.08855282 70896,6917.834,95.437,540.411,538.987,0.0
54790.0,STARLINK-5445,PAYLOAD,2024-03-30 20:41:32,15.08833211,0.0001328,53.2181,330.9607,86.0237,274.0907,4.1626e-05,3.75e-06,0.0,0 STARLINK-5445,1 54790U 22175AJ  24090.86218339  .00000375  00000-0  41626-4 0  9995,2 54790  53.2181 330.9607 0001328  86.0237 274.0907 15.08833211 70968,6917.901,95.438,540.685,538.847,0.0
54790.0,STARLINK-5445,PAYLOAD,2024-03-30 22:16:55,15.08833838,0.0001332,53.2177,330.663,87.6274,272.487,3.4992e-05,2.69e-06,0.0,0 STARLINK-5445,1 54790U 22175AJ  24090.92842334  .00000269  00000-0  34992-4 0  9990,2 54790  53.2177 330.6630 0001332  87.6274 272.4870 15.08833838 73137,6917.899,95.438,540.686,538.843,0.0
54790.0,STARLINK-5445,PAYLOAD,2024-03-31 03:03:04,15.08848047,0.0001328,53.2182,329.7689,97.523,262.5913,3.7252e-05,3.05e-06,0.0,0 STARLINK-5445,1 54790U 22175AJ  24091.12713340  .00000305  00000-0  37252-4 0  9990,2 54790  53.2182 329.7689 0001328  97.5230 262.5913 15.08848047 71003,6917.856,95.437,540.639,538.802,0.0
54790.0,STARLINK-5445,PAYLOAD,2024-03-31 09:24:36,15.08847747,0.0001278,53.2177,328.5795,104.2582,255.8552,4.3217e-05,4e-06,0.0,0 STARLINK-5445,1 54790U 22175AJ  24091.39209242  .00000400  00000-0  43217-4 0  9994,2 54790  53.2177 328.5795 0001278 104.2582 255.8552 15.08847747 73206,6917.857,95.437,540.606,538.838,0.0
54790.0,STARLINK-5445,PAYLOAD,2024-03-31 20:32:19,15.08833146,0.0001302,53.2188,326.4988,105.4414,254.6722,5.0247e-05,5.12e-06,0.0,0 STARLINK-5445,1 54790U 22175AJ  24091.85578162  .00000512  00000-0  50247-4 0  9990,2 54790  53.2188 326.4988 0001302 105.4414 254.6722 15.08833146 71116,6917.901,95.438,540.667,538.866,0.0
54790.0,STARLINK-5445,PAYLOAD,2024-03-31 22:07:42,15.08832174,0.0001324,53.2194,326.2023,93.1095,267.0048,3.9303e-05,3.38e-06,0.0,0 STARLINK-5445,1 54790U 22175AJ  24091.92202371  .00000338  00000-0  39303-4 0  9990,2 54790  53.2194 326.2023 0001324  93.1095 267.0048 15.08832174 73282,6917.904,95.438,540.685,538.853,0.0
54790.0,STARLINK-5445,PAYLOAD,2024-04-02 01:09:15,15.08841995,0.0001168,53.2183,321.146,89.3306,270.782,0.00011939,1.613e-05,0.0,0 STARLINK-5445,1 54790U 22175AJ  24093.04809868  .00001613  00000-0  11939-3 0  9990,2 54790  53.2183 321.1460 0001168  89.3306 270.7820 15.08841995 71296,6917.874,95.437,540.547,538.931,0.0
54790.0,STARLINK-5445,PAYLOAD,2024-04-02 21:49:16,15.0883516,0.0001181,53.2178,317.2812,86.4116,273.7011,0.00016291,2.305e-05,0.0,0 STARLINK-5445,1 54790U 22175AJ  24093.90922452  .00002305  00000-0  16291-3 0  9995,2 54790  53.2178 317.2812 0001181  86.4116 273.7011 15.08835160 71426,6917.895,95.438,540.577,538.943,0.0
54790.0,STARLINK-5445,PAYLOAD,2024-04-03 07:21:35,15.08844962,0.00012,53.2172,315.497,84.0178,276.0951,0.00013997,1.941e-05,0.0,0 STARLINK-5445,1 54790U 22175AJ  24094.30665889  .00001941  00000-0  13997-3 0  9993,2 54790  53.2172 315.4970 0001200  84.0178 276.0951 15.08844962 71484,6917.865,95.437,540.56,538.9,0.0
54790.0,STARLINK-5445,PAYLOAD,2024-04-03 21:40:04,15.08837606,0.0001213,53.2177,312.8214,93.7309,266.3821,6.0508e-05,6.75e-06,0.0,0 STARLINK-5445,1 54790U 22175AJ  24094.90282586  .00000675  00000-0  60508-4 0  9992,2 54790  53.2177 312.8214 0001213  93.7309 266.3821 15.08837606 71573,6917.888,95.438,540.592,538.914,0.0
54790.0,STARLINK-5445,PAYLOAD,2024-04-04 07:12:22,15.08841999,0.0001271,53.2178,311.0372,89.1865,270.9272,7.952e-05,9.78e-06,0.0,0 STARLINK-5445,1 54790U 22175AJ  24095.30026268  .00000978  00000-0  79520-4 0  9990,2 54790  53.2178 311.0372 0001271  89.1865 270.9272 15.08841999 73797,6917.874,95.437,540.619,538.86,0.0
54790.0,STARLINK-5445,PAYLOAD,2024-04-04 21:30:51,15.08835073,0.0001422,53.2191,308.3614,89.1245,270.991,4.2369e-05,3.86e-06,0.0,0 STARLINK-5445,1 54790U 22175AJ  24095.89642973  .00000386  00000-0  42369-4 0  9995,2 54790  53.2191 308.3614 0001422  89.1245 270.9910 15.08835073 73885,6917.895,95.438,540.744,538.777,0.0
54790.0,STARLINK-5445,PAYLOAD,2024-04-04 23:06:14,15.08835761,0.0001418,53.219,308.0636,87.1827,272.9327,4.3851e-05,4.1e-06,0.0,0 STARLINK-5445,1 54790U 22175AJ  24095.96266937  .00000410  00000-0  43851-4 0  9990,2 54790  53.2190 308.0636 0001418  87.1827 272.9327 15.08835761 71734,6917.893,95.438,540.739,538.777,0.0
54790.0,STARLINK-5445,PAYLOAD,2024-04-05 07:03:09,15.0884443,0.0001495,53.219,306.5761,82.863,277.2533,8.9864e-05,1.143e-05,0.0,0 STARLINK-5445,1 54790U 22175AJ  24096.29386292  .00001143  00000-0  89864-4 0  9992,2 54790  53.2190 306.5761 0001495  82.8630 277.2533 15.08844430 71780,6917.867,95.437,540.766,538.698,0.0
54790.0,STARLINK-5445,PAYLOAD,2024-04-05 21:21:38,15.08840773,0.0001338,53.2184,303.8999,84.5472,275.5673,0.00011478,1.539e-05,0.0,0 STARLINK-5445,1 54790U 22175AJ  24096.89002502  .00001539  00000-0  11478-3 0  9991,2 54790  53.2184 303.8999 0001338  84.5472 275.5673 15.08840773 74038,6917.878,95.438,540.669,538.817,0.0
54790.0,STARLINK-5445,PAYLOAD,2024-04-06 13:15:29,15.08845392,0.0001436,53.2181,300.9259,83.8876,276.228,0.00017297,2.466e-05,0.0,0 STARLINK-5445,1 54790U 22175AJ  24097.55242008  .00002466  00000-0  17297-3 0  9997,2 54790  53.2181 300.9259 0001436  83.8876 276.2280 15.08845392 71975,6917.864,95.437,540.722,538.736,0.0
54790.0,STARLINK-5445,PAYLOAD,2024-04-06 19:37:02,15.08837959,0.000162,53.2192,299.7369,83.8865,276.2312,9.7218e-05,1.259e-05,0.0,0 STARLINK-5445,1 54790U 22175AJ  24097.81738796  .00001259  00000-0  97218-4 0  9991,2 54790  53.2192 299.7369 0001620  83.8865 276.2312 15.08837959 72019,6917.887,95.438,540.872,538.631,0.0
54790.0,STARLINK-5445,PAYLOAD,2024-04-06 22:47:48,15.08834235,0.0001503,53.2184,299.1431,85.85,274.2664,4.8148e-05,4.78e-06,0.0,0 STARLINK-5445,1 54790U 22175AJ  24097.94987109  .00000478  00000-0  48148-4 0  9999,2 54790  53.2184 299.1431 0001503  85.8500 274.2664 15.08834235 74195,6917.898,95.438,540.803,538.723,0.0
54790.0,STARLINK-5445,PAYLOAD,2024-04-07 13:06:16,15.08840295,0.0001689,53.2176,296.4665,82.3094,277.809,5.7972e-05,6.35e-06,0.0,0 STARLINK-5445,1 54790U 22175AJ  24098.54602766  .00000635  00000-0  57972-4 0  9999,2 54790  53.2176 296.4665 0001689  82.3094 277.8090 15.08840295 74285,6917.879,95.438,540.913,538.576,0.0
54790.0,STARLINK-5445,PAYLOAD,2024-04-07 19:27:48,15.08844345,0.0001651,53.2172,295.2771,82.5309,277.5871,8.4257e-05,1.053e-05,0.0,0 STARLINK-5445,1 54790U 22175AJ  24098.81098363  .00001053  00000-0  84257-4 0  9992,2 54790  53.2172 295.2771 0001651  82.5309 277.5871 15.08844345 74325,6917.867,95.437,540.874,538.59,0.0
54790.0,STARLINK-5445,PAYLOAD,2024-04-08 12:57:03,15.08840371,0.0001503,53.2182,292.0065,84.9085,275.2078,0.00011427,1.531e-05,0.0,0 STARLINK-5445,1 54790U 22175AJ  24099.53962480  .00001531  00000-0  11427-3 0  9991,2 54790  53.2182 292.0065 0001503  84.9085 275.2078 15.08840371 72271,6917.879,95.438,540.784,538.704,0.0
54790.0,STARLINK-5445,PAYLOAD,2024-04-08 22:29:22,15.08843443,0.000146,53.218,290.2214,89.4328,270.6832,0.00010768,1.426e-05,0.0,0 STARLINK-5445,1 54790U 22175AJ  24099.93706283  .00001426  00000-0  10768-3 0  9992,2 54790  53.2180 290.2214 0001460  89.4328 270.6832 15.08843443 74493,6917.87,95.437,540.745,538.725,0.0
54790.0,STARLINK-5445,PAYLOAD,2024-04-09 19:09:23,15.08839607,0.0001539,53.2153,286.3529,96.2156,263.9012,5.9181e-05,6.54e-06,0.0,0 STARLINK-5445,1 54790U 22175AJ  24100.79818648  .00000654  00000-0  59181-4 0  9993,2 54790  53.2153 286.3529 0001539  96.2156 263.9012 15.08839607 72467,6917.882,95.438,540.811,538.682,0.0
54790.0,STARLINK-5445,PAYLOAD,2024-04-09 22:20:09,15.08837785,0.0001453,53.2176,285.7591,95.2638,264.852,2.2928e-05,7.7e-07,0.0,0 STARLINK-5445,1 54790U 22175AJ  24100.93066841  .00000077  00000-0  22928-4 0  9997,2 54790  53.2176 285.7591 0001453  95.2638 264.8520 15.08837785 74644,6917.887,95.438,540.757,538.747,0.0
